FLOCK 3P-11             
1 41975U 17008AD  19252.42573891  .00001217  00000-0  50778-4 0  9992
2 41975  97.4006 318.5659 0007496 198.6854 161.4110 15.25565778142268
FLOCK 3P-60             
1 41976U 17008AE  19251.87344618  .00000972  00000-0  41129-4 0  9991
2 41976  97.4011 318.1308 0007048 202.8026 157.2900 15.25556281141666
FLOCK 3P-58             
1 41977U 17008AF  19251.76432788  .00001289  00000-0  53617-4 0  9993
2 41977  97.4007 317.9233 0007125 201.9721 158.1212 15.25563146142478
FLOCK 3P-57             
1 41978U 17008AG  19251.75447857  .00001472  00000-0  60804-4 0  9996
2 41978  97.4006 317.9380 0007254 200.4830 159.6118 15.25589796142312
FLOCK 3P-75             
1 41979U 17008AH  19252.40831075  .00001756  00000-0  71935-4 0  9991
2 41979  97.4032 318.8787 0007229 202.1492 157.9435 15.25608414142567
FLOCK 3P-70             
1 41980U 17008AJ  19252.40687680  .00000982  00000-0  41454-4 0  9997
2 41980  97.4033 318.8923 0007199 201.4084 158.6854 15.25609697142407
FLOCK 3P-73             
1 41981U 17008AK  19251.82226101  .00002269  00000-0  89501-4 0  9995
2 41981  97.4034 318.6045 0007334 202.3832 157.7087 15.26578305142471
FLOCK 3P-88             
1 41982U 17008AL  19252.16461132  .00001761  00000-0  70241-4 0  9996
2 41982  97.4031 319.0194 0007180 198.7529 161.3446 15.26509624141500
FLOCK 3P-85             
1 41983U 17008AM  19252.17157965  .00001789  00000-0  71868-4 0  9990
2 41983  97.4030 319.0362 0007018 203.7306 156.3610 15.26236259142405
FLOCK 3P-79             
1 41984U 17008AN  19252.19653162  .00000965  00000-0  40875-4 0  9992
2 41984  97.4032 318.7111 0006975 204.8574 155.2329 15.25549862142384
FLOCK 3P-86             
1 41985U 17008AP  19251.60861386  .00001138  00000-0  47691-4 0  9993
2 41985  97.4034 318.1257 0006853 206.2850 153.8042 15.25551699142286
FLOCK 3P-36             
1 41986U 17008AQ  19251.80562219  .00001766  00000-0  72339-4 0  9993
2 41986  97.4016 318.1047 0006868 202.8304 157.2629 15.25607644141804
FLOCK 3P-30             
1 41987U 17008AR  19251.92477493  .00000830  00000-0  35528-4 0  9996
2 41987  97.4013 318.2379 0006527 203.8549 156.2388 15.25557652142293
FLOCK 3P-34             
1 41988U 17008AS  19252.13781558  .00000968  00000-0  40951-4 0  9999
2 41988  97.4010 318.3629 0006935 198.4320 161.6668 15.25572187141851
FLOCK 3P-35             
1 41989U 17008AT  19251.60782303  .00001463  00000-0  59645-4 0  9991
2 41989  97.4009 317.9965 0006817 197.8519 162.2481 15.26040174141789
FLOCK 3P-33             
1 41990U 17008AU  19251.61186815  .00000731  00000-0  31693-4 0  9990
2 41990  97.4009 317.8465 0006695 201.2611 158.8350 15.25499110141774
FLOCK 3P-49             
1 42001U 17008BF  19251.65419962  .00001133  00000-0  47442-4 0  9996
2 42001  97.4010 317.9518 0006801 222.4654 137.6059 15.25601742142308
FLOCK 3P-67             
1 42002U 17008BG  19252.19957309  .00001984  00000-0  78268-4 0  9993
2 42002  97.4005 319.0099 0006599 214.8209 145.2598 15.26728949142588
FLOCK 3P-68             
1 42003U 17008BH  19252.19042803  .00000938  00000-0  39780-4 0  9992
2 42003  97.4006 318.4168 0006892 217.7320 142.3436 15.25561224142187
FLOCK 3P-41             
1 42004U 17008BJ  19252.19061608  .00002343  00000-0  91882-4 0  9990
2 42004  97.3997 318.8518 0006564 217.3661 142.7122 15.26747466142405
FLOCK 3P-45             
1 42005U 17008BK  19252.31535532  .00002083  00000-0  81907-4 0  9995
2 42005  97.4014 319.1793 0006447 217.3085 142.7707 15.26773495142596
FLOCK 3P-48             
1 42006U 17008BL  19252.18418487  .00000819  00000-0  35095-4 0  9992
2 42006  97.4015 318.5000 0006526 221.2315 138.8431 15.25568179142321
FLOCK 3P-43             
1 42007U 17008BM  19252.17023334  .00001824  00000-0  73694-4 0  9999
2 42007  97.4023 318.5218 0006285 220.3696 139.7077 15.26020676142531
FLOCK 3P-42             
1 42008U 17008BN  19252.17966144  .00001059  00000-0  44566-4 0  9991
2 42008  97.4005 318.4215 0006601 220.8407 139.2337 15.25556837142463
FLOCK 3P-61             
1 42009U 17008BP  19252.17817033  .00000856  00000-0  36559-4 0  9991
2 42009  97.4008 318.4478 0006456 222.4262 137.6477 15.25575771142514
FLOCK 3P-40             
1 42010U 17008BQ  19252.37066246  .00000824  00000-0  35288-4 0  9990
2 42010  97.4001 318.5651 0006337 224.3436 135.7296 15.25572646141802
FLOCK 3P-16             
1 42011U 17008BR  19251.92460483  .00001748  00000-0  71993-4 0  9991
2 42011  97.4001 318.0900 0006049 224.3502 135.7253 15.25442417141679
FLOCK 3P-14             
1 42012U 17008BS  19251.84810214  .00000816  00000-0  34925-4 0  9993
2 42012  97.4021 318.3424 0005949 227.6000 132.4735 15.25641729142298
FLOCK 3P-53             
1 42013U 17008BT  19251.83081444  .00001693  00000-0  68450-4 0  9992
2 42013  97.4005 318.2131 0005881 225.0624 135.0138 15.26108116142299
FLOCK 3P-54             
1 42014U 17008BU  19251.77922379  .00001214  00000-0  50645-4 0  9993
2 42014  97.4005 318.0144 0005900 227.0612 133.0131 15.25574964142448
FLOCK 3P-23             
1 42018U 17008BY  19252.16875126  .00000940  00000-0  39851-4 0  9999
2 42018  97.3997 318.1947 0007826 197.8287 162.2678 15.25585587141301
FLOCK 3P-76             
1 42019U 17008BZ  19251.74612340  .00000975  00000-0  41262-4 0  9997
2 42019  97.4038 318.2874 0007298 205.4397 154.6483 15.25571284142309
FLOCK 3P-69             
1 42020U 17008CA  19251.66505823  .00001894  00000-0  77002-4 0  9999
2 42020  97.4037 318.2254 0007178 203.4220 156.6692 15.25771139141182
FLOCK 3P-84             
1 42021U 17008CB  19251.74891828  .00001824  00000-0  74538-4 0  9996
2 42021  97.4032 318.2139 0007448 204.3532 155.7355 15.25644939142315
FLOCK 3P-59             
1 42022U 17008CC  19252.24638732  .00002118  00000-0  83490-4 0  9990
2 42022  97.4007 318.9396 0006831 198.9434 161.1552 15.26678451141444
FLOCK 3P-32             
1 42023U 17008CD  19252.40907392  .00001419  00000-0  58655-4 0  9998
2 42023  97.4004 318.5875 0007199 198.0071 162.0913 15.25606537142577
FLOCK 3P-71             
1 42024U 17008CE  19251.41605258  .00001964  00000-0  77359-4 0  9992
2 42024  97.4010 318.2855 0007009 205.6639 154.4253 15.26780766141327
FLOCK 3P-77             
1 42025U 17008CF  19252.13510861  .00000904  00000-0  38378-4 0  9999
2 42025  97.4033 318.6443 0007148 204.7852 155.3044 15.25646075142378
FLOCK 3P-80             
1 42026U 17008CG  19252.43892730  .00000887  00000-0  37757-4 0  9991
2 42026  97.4032 318.9815 0006818 202.8920 157.2015 15.25579826140569
FLOCK 3P-66             
1 42027U 17008CH  19252.18977348  .00000947  00000-0  40160-4 0  9992
2 42027  97.4008 318.4535 0006934 217.2086 142.8672 15.25555294142495
FLOCK 3P-65             
1 42028U 17008CJ  19252.18883485  .00000884  00000-0  37688-4 0  9992
2 42028  97.4012 318.4701 0006762 217.7491 142.3274 15.25558329142394
FLOCK 3P-50             
1 42029U 17008CK  19252.31602116  .00000988  00000-0  41765-4 0  9994
2 42029  97.4014 318.6391 0006715 219.4237 140.6513 15.25569836141738
FLOCK 3P-52             
1 42030U 17008CL  19252.18571133  .00000784  00000-0  33737-4 0  9999
2 42030  97.4011 318.4637 0006736 219.3007 140.7743 15.25547877142485
FLOCK 3P-46             
1 42031U 17008CM  19252.37814280  .00000826  00000-0  35398-4 0  9996
2 42031  97.4002 318.6060 0006605 219.2722 140.8037 15.25565295142544
FLOCK 3P-47             
1 42032U 17008CN  19251.91945906  .00001165  00000-0  48744-4 0  9992
2 42032  97.4003 318.1491 0006611 222.1402 137.9329 15.25566781142322
FLOCK 3P-44             
1 42033U 17008CP  19251.87510620  .00001121  00000-0  47069-4 0  9990
2 42033  97.4007 317.9766 0006325 227.1061 132.9646 15.25523162141059
FLOCK 3P-64             
1 42034U 17008CQ  19252.43903161  .00000891  00000-0  37930-4 0  9999
2 42034  97.4005 318.6697 0006304 223.5105 136.5637 15.25573625142572
FLOCK 3P-63             
1 42035U 17008CR  19251.64010022  .00001858  00000-0  75588-4 0  9992
2 42035  97.4000 317.8755 0006500 225.9805 134.0898 15.25773099140426
FLOCK 3P-62             
1 42036U 17008CS  19252.19027544  .00001940  00000-0  76274-4 0  9996
2 42036  97.4010 319.1593 0006311 221.7255 138.3503 15.26859583141757
FLOCK 3P-38             
1 42037U 17008CT  19252.18726871  .00001848  00000-0  73988-4 0  9991
2 42037  97.4007 318.7013 0006005 221.0285 139.0502 15.26322937142501
FLOCK 3P-39             
1 42038U 17008CU  19251.77143597  .00000966  00000-0  40858-4 0  9994
2 42038  97.3997 317.9676 0006219 226.4823 133.5899 15.25597910142376
FLOCK 3P-15             
1 42039U 17008CV  19252.14614237  .00001802  00000-0  72282-4 0  9997
2 42039  97.4004 318.5724 0006064 224.0448 136.0308 15.26279129141724
FLOCK 3P-13             
1 42040U 17008CW  19251.84690503  .00001864  00000-0  74383-4 0  9997
2 42040  97.4010 318.4358 0005976 224.3196 135.7564 15.26410359141675
FLOCK 3P-55             
1 42041U 17008CX  19251.88891696  .00001380  00000-0  57173-4 0  9999
2 42041  97.4004 318.1877 0005802 230.4294 129.6432 15.25598984142506
FLOCK 3P-56             
1 42042U 17008CY  19251.91363603  .00001957  00000-0  76333-4 0  9995
2 42042  97.4003 319.1646 0005681 223.4025 136.6767 15.27129945142362
FLOCK 3P-81             
1 42043U 17008CZ  19251.92813438  .00000766  00000-0  33032-4 0  9999
2 42043  97.4033 318.4574 0007233 206.4549 153.6321 15.25568644141685
FLOCK 3P-87             
1 42044U 17008DA  19252.40515990  .00001216  00000-0  50713-4 0  9992
2 42044  97.4026 318.8248 0007368 201.5384 158.5546 15.25590376141907
FLOCK 3P-29             
1 42045U 17008DB  19252.14249110  .00002021  00000-0  80915-4 0  9994
2 42045  97.3998 318.4866 0007156 197.2598 162.8398 15.26209042141721
FLOCK 3P-82             
1 42046U 17008DC  19251.88282137  .00001859  00000-0  73547-4 0  9992
2 42046  97.4034 318.9396 0007110 201.0805 159.0141 15.26709984141760
